[{"OBJECT_NAME":"TIANHUI 5A","OBJECT_ID":"2023-168A","EPOCH":"2026-03-09T14:12:49.556736","MEAN_MOTION":14.8757926,"ECCENTRICITY":0.0001554,"INCLINATION":97.8216,"RA_OF_ASC_NODE":77.385,"ARG_OF_PERICENTER":89.7041,"MEAN_ANOMALY":270.4353,"EPHEMERIS_TYPE":0,"CLASSIFICATION_TYPE":"U","NORAD_CAT_ID":58199,"ELEMENT_SET_NO":999,"REV_AT_EPOCH":12779,"BSTAR":7.8424e-5,"MEAN_MOTION_DOT":6.58e-6,"MEAN_MOTION_DDOT":0},{"OBJECT_NAME":"USA 57","OBJECT_ID":"1990-031B","EPOCH":"2026-03-09T23:09:57.966336","MEAN_MOTION":14.73121997,"ECCENTRICITY":0.00684729,"INCLINATION":89.8421,"RA_OF_ASC_NODE":266.6849,"ARG_OF_PERICENTER":50.3395,"MEAN_ANOMALY":310.3837,"EPHEMERIS_TYPE":0,"CLASSIFICATION_TYPE":"U","NORAD_CAT_ID":20561,"ELEMENT_SET_NO":999,"REV_AT_EPOCH":10057,"BSTAR":0.00011702227,"MEAN_MOTION_DOT":7.99e-6,"MEAN_MOTION_DDOT":0}]
